OBJECT_NAME,OBJECT_ID,EPOCH,MEAN_MOTION,ECCENTRICITY,INCLINATION,RA_OF_ASC_NODE,ARG_OF_PERICENTER,MEAN_ANOMALY,EPHEMERIS_TYPE,CLASSIFICATION_TYPE,NORAD_CAT_ID,ELEMENT_SET_NO,REV_AT_EPOCH,BSTAR,MEAN_MOTION_DOT,MEAN_MOTION_DDOT
STARLINK-11225 [DTC],2024-154K,2026-06-13T21:16:46.271424,15.69707938,.0001192,53.1602,17.0146,85.6082,274.5072,0,U,60912,999,10361,.62161E-5,.164E-5,0
STARLINK-11273 [DTC],2024-154L,2026-06-13T21:09:42.439680,15.69705333,.00007103,53.1587,16.9832,107.0245,253.0851,0,U,60913,999,10361,-.5771589E-5,-.1287E-4,0
STARLINK-11271 [DTC],2024-154N,2026-06-13T20:55:34.847040,15.69706278,.0001264,53.1604,16.9166,98.5087,261.6075,0,U,60915,999,10361,.755818E-5,.327E-5,0
STARLINK-32371,2024-154P,2026-06-14T06:20:41.956800,15.31698291,.00012274,53.1604,195.0741,92.1789,267.9353,0,U,60916,999,10112,.14522376E-4,.86E-6,0
STARLINK-32369,2024-154Q,2026-06-14T06:00:02.000160,15.31726814,.00014091,53.1576,195.0930,70.0947,236.5626,0,U,60917,999,586,-.66971536E-3,-.21107E-3,0
STARLINK-32317,2024-154R,2026-06-14T07:22:26.336928,15.30197685,.00012068,53.1591,195.3434,92.4823,267.6316,0,U,60918,999,10112,.7048013E-5,-.15E-5,0
STARLINK-32367,2024-154S,2026-06-14T07:35:57.509376,15.30192307,.00012165,53.1598,194.6914,96.0328,264.0812,0,U,60919,999,10113,-.2252765E-5,-.426E-5,0
STARLINK-32345,2024-154T,2026-06-14T07:23:57.713568,15.30192403,.00010955,53.1598,195.3487,99.9941,260.1183,0,U,60920,999,10113,-.1362011E-5,-.399E-5,0
STARLINK-32356,2024-154U,2026-06-14T06:07:15.961440,15.31692508,.00010637,53.1600,195.0132,85.3532,274.7591,0,U,60921,999,10113,.10380531E-3,.2857E-4,0
STARLINK-32274,2024-154V,2026-06-14T06:56:33.784224,15.30218259,.0001156,53.1593,195.2286,78.3680,281.7451,0,U,60922,999,10113,.92791985E-4,.2392E-4,0
STARLINK-32373,2024-154W,2026-06-14T05:36:13.847040,15.30189546,.00013529,53.1594,195.5887,82.9979,277.1176,0,U,60923,999,10112,.35467284E-4,.691E-5,0
STARLINK-11239 [DTC],2024-155A,2026-06-14T07:33:56.646144,15.69712154,.0001001,53.1572,225.2834,101.2642,258.8489,0,U,60924,999,10357,.27958489E-4,.28E-4,0
STARLINK-11245 [DTC],2024-155B,2026-06-13T11:20:53.278368,15.69690930,.00010308,53.1590,229.2649,57.1248,302.9869,0,U,60925,999,10344,-.15507477E-4,-.2465E-4,0
STARLINK-11244 [DTC],2024-155C,2026-06-13T11:06:45.747072,15.69687018,.00008031,53.1579,229.2014,98.5127,261.5982,0,U,60926,999,10349,-.23242415E-4,-.34E-4,0
STARLINK-11243 [DTC],2024-155D,2026-06-13T11:13:49.602144,15.69689370,.00009172,53.1586,229.2330,90.1228,269.9895,0,U,60927,999,10344,-.1602327E-4,-.2527E-4,0
STARLINK-11238 [DTC],2024-155E,2026-06-13T21:41:28.173120,15.69705565,.0001119,53.1582,226.9692,91.7752,268.3394,0,U,60928,999,10356,-.24163E-5,-.881E-5,0
STARLINK-11240 [DTC],2024-155F,2026-06-13T21:34:24.286944,15.69701766,.0001065,53.1590,226.9390,71.4440,288.6694,0,U,60929,999,10351,-.44776E-5,-.1131E-4,0
STARLINK-11251 [DTC],2024-155G,2026-06-13T21:27:20.633184,15.69701014,.0001041,53.1594,226.9055,87.2918,272.8219,0,U,60930,999,10351,-.84739E-5,-.1614E-4,0
STARLINK-11204 [DTC],2024-155H,2026-06-13T21:20:16.281312,15.69708876,.0001118,53.1571,226.8708,78.2064,281.9080,0,U,60931,999,10351,.31961E-5,-.201E-5,0
STARLINK-11246 [DTC],2024-155J,2026-06-13T10:31:25.627584,15.69703809,.00011139,53.1586,229.0352,54.9972,305.1150,0,U,60932,999,10344,.2452894E-5,-.291E-5,0
STARLINK-11207 [DTC],2024-155K,2026-06-13T21:06:08.109792,15.69721975,.0001158,53.1579,226.8053,76.1022,284.0124,0,U,60933,999,10351,.16589E-4,.1422E-4,0
STARLINK-11237 [DTC],2024-155L,2026-06-13T20:59:04.945056,15.69704700,.0000938,53.1577,226.7721,75.0141,285.0981,0,U,60934,999,10352,-.10959E-5,-.721E-5,0
STARLINK-11253 [DTC],2024-155M,2026-06-14T07:26:52.668384,15.69710349,.00009416,53.1591,225.2459,90.0306,270.0820,0,U,60935,999,10357,.8374807E-5,.426E-5,0
STARLINK-11241 [DTC],2024-155N,2026-06-13T11:27:56.581344,15.69702045,.00010403,53.1587,229.2939,84.9240,275.1896,0,U,60936,999,10344,-.43212505E-4,-.5818E-4,0
STARLINK-32259,2024-155P,2026-06-13T22:21:44.769888,15.30190835,.0001357,53.1613,42.8025,82.7816,277.3339,0,U,60937,999,10107,-.49617E-5,-.506E-5,0
STARLINK-32262,2024-155Q,2026-06-14T06:00:02.000160,15.86375529,.00005223,53.1373,354.9805,59.3921,261.1837,0,U,60938,999,600,.79879128E-3,.208846E-2,0
STARLINK-32258,2024-155R,2026-06-13T22:29:19.760928,15.34388161,.0001356,53.1614,42.1230,83.8057,276.3100,0,U,60939,999,10103,.33542E-4,.757E-5,0
STARLINK-32251,2024-155S,2026-06-13T23:02:39.927840,15.34382837,.0001361,53.1614,42.2714,115.6271,244.4873,0,U,60940,999,10108,-.30408E-4,-.1403E-4,0
STARLINK-32224,2024-155T,2026-06-14T00:00:02.000160,15.34390753,.00013367,53.1609,42.2185,83.2835,67.1881,0,U,60941,999,588,.90290766E-3,.30244E-3,0
STARLINK-32184,2024-155U,2026-06-14T03:16:46.085664,15.34405482,.00010132,53.1600,41.2415,102.0678,258.0438,0,U,60942,999,10106,.48266504E-3,.15969E-3,0
STARLINK-32288,2024-155V,2026-06-13T22:38:28.146912,15.34339167,.0001396,53.1621,42.1619,85.8450,274.2712,0,U,60943,999,10103,-.23169E-3,-.8181E-4,0
STARLINK-32276,2024-155W,2026-06-14T05:57:15.970464,15.34208794,.00007884,53.1610,41.2143,82.6617,277.4475,0,U,60944,999,10117,.29135334E-2,.98762E-3,0
YAOGAN-43 02A,2024-156A,2026-06-14T07:02:47.859072,15.49442763,.00043894,34.9930,171.6881,234.4718,125.5595,0,U,60945,999,9951,.74367255E-3,.42341E-3,0
YAOGAN-43 02B,2024-156B,2026-06-14T07:09:01.543392,15.23052260,.00020859,34.9933,216.1889,89.5898,270.5056,0,U,60946,999,9900,.31645822E-3,.7606E-4,0
YAOGAN-43 02C,2024-156C,2026-06-14T07:03:19.325088,15.22982953,.0003055,34.9969,216.3275,339.4810,20.5782,0,U,60947,999,9900,.21872181E-3,.5233E-4,0
YAOGAN-43 02D,2024-156D,2026-06-14T07:13:01.802784,15.23094391,.00028672,34.9908,216.1078,238.0442,121.9994,0,U,60948,999,9900,.2777405E-3,.6679E-4,0
YAOGAN-43 02E,2024-156E,2026-06-14T07:18:49.324320,15.23012787,.00033695,34.9948,216.3084,319.6917,40.3548,0,U,60949,999,9900,.38179024E-3,.9176E-4,0
YAOGAN-43 02F,2024-156F,2026-06-14T07:04:34.567392,15.23091229,.00014911,34.9915,216.0698,291.4955,68.5601,0,U,60950,999,9900,.25745641E-3,.6187E-4,0
SENTINEL-2C,2024-157A,2026-06-14T03:58:23.690208,14.30817015,.0001068,98.5692,239.9902,80.2378,279.8926,0,U,60989,999,9255,.50694698E-4,.89E-6,0
STARLINK-11289 [DTC],2024-158B,2026-06-14T06:02:09.084192,15.69708886,.00011529,53.1598,165.0404,84.4989,275.6161,0,U,60991,999,10276,.2480161E-5,-.288E-5,0
STARLINK-11282 [DTC],2024-158C,2026-06-14T06:23:20.644224,15.69702501,.00011007,53.1582,165.1387,118.1367,241.9762,0,U,60992,999,10276,.8187343E-5,.403E-5,0
STARLINK-11283 [DTC],2024-158D,2026-06-14T05:41:06.120960,15.69710157,.00009053,53.1583,165.6768,94.8525,265.2597,0,U,60993,999,10275,.11645823E-4,.823E-5,0
STARLINK-11267 [DTC],2024-158E,2026-06-14T07:05:43.384992,15.69712519,.00012482,53.1598,165.3335,88.9249,271.1912,0,U,60994,999,10276,.10318552E-4,.661E-5,0
STARLINK-11269 [DTC],2024-158F,2026-06-14T06:58:39.440064,15.69713125,.00008671,53.1588,165.2968,75.5670,284.5445,0,U,60995,999,10275,.8640158E-5,.459E-5,0
STARLINK-11281 [DTC],2024-158G,2026-06-14T06:51:35.876160,15.69707202,.00009664,53.1589,165.2570,51.6108,308.4996,0,U,60996,999,10275,.15196931E-4,.1253E-4,0
STARLINK-11260 [DTC],2024-158H,2026-06-14T05:15:33.107616,15.69705671,.00008267,53.1586,143.2465,101.5696,258.5414,0,U,60997,999,10311,-.4682103E-5,-.1155E-4,0
STARLINK-11287 [DTC],2024-158J,2026-06-14T06:44:31.951968,15.69708415,.00010574,53.1577,165.2292,54.3758,305.7359,0,U,60998,999,10275,.1514069E-5,-.405E-5,0
STARLINK-11270 [DTC],2024-158K,2026-06-14T06:37:28.254144,15.69715080,.00013016,53.1561,165.1969,44.0767,316.0355,0,U,60999,999,10275,.12978617E-2,.159741E-2,0
STARLINK-11290 [DTC],2024-158L,2026-06-14T06:30:24.501888,15.69705964,.00010832,53.1592,165.1658,81.1963,278.9177,0,U,61000,999,10282,-.105487E-6,-.601E-5,0
STARLINK-11274 [DTC],2024-158M,2026-06-14T06:16:16.580928,15.69706101,.00011456,53.1597,165.1006,88.9217,271.1932,0,U,61001,999,10275,.5692176E-5,.101E-5,0
STARLINK-11288 [DTC],2024-158N,2026-06-14T06:09:13.166496,15.69704376,.00011777,53.1584,165.0630,67.0369,293.0773,0,U,61002,999,10275,.1783626E-4,.1572E-4,0
STARLINK-32279,2024-158P,2026-06-14T05:01:59.635200,15.34385285,.0001491,53.1639,336.8706,102.0765,258.0405,0,U,61003,999,10043,-.147937E-6,-.381E-5,0
STARLINK-32336,2024-158Q,2026-06-13T18:14:30.715872,15.34387152,.00008924,53.1620,339.0448,64.0675,296.0419,0,U,61004,999,10036,.1796138E-4,.231E-5,0
STARLINK-32284,2024-158R,2026-06-14T04:58:57.889344,15.34387587,.00015347,53.1644,336.8597,108.0936,252.0234,0,U,61005,999,10036,.24062061E-4,.436E-5,0
STARLINK-32282,2024-158S,2026-06-14T06:00:02.000160,15.34316236,.00013543,53.1597,336.8873,90.3548,27.8686,0,U,61006,999,587,.11374507E-2,.38148E-3,0
STARLINK-32360,2024-158T,2026-06-14T03:47:43.232928,15.34384366,.00012434,53.1624,321.2573,92.1082,268.0063,0,U,61007,999,10057,.7638446E-5,-.118E-5,0
STARLINK-32340,2024-158U,2026-06-14T05:08:01.889664,15.34389293,.00013733,53.1634,336.8274,84.7841,275.3318,0,U,61008,999,10036,-.336708E-5,-.49E-5,0
STARLINK-32347,2024-158W,2026-06-14T06:00:02.000160,15.34384193,.00012544,53.1596,336.8159,83.9112,69.1864,0,U,61010,999,576,.69598113E-3,.232E-3,0
GEESAT-3 01,2024-159A,2026-06-14T05:53:23.646048,14.84215239,.00025528,49.9994,96.7308,238.6774,121.3915,0,U,61011,999,9624,.30490382E-3,.2352E-4,0
GEESAT-3 02,2024-159B,2026-06-14T05:42:32.772384,14.84193359,.00189336,49.9932,97.0014,43.9704,316.2737,0,U,61012,999,9635,.27418239E-3,.2093E-4,0
GEESAT-3 03,2024-159C,2026-06-14T06:14:39.933888,14.84202566,.00052227,49.9925,95.6362,112.5467,247.6025,0,U,61013,999,9640,.27908269E-3,.2133E-4,0
GEESAT-3 04,2024-159D,2026-06-14T03:33:00.588672,14.83265413,.00027892,49.9989,8.1761,66.5367,293.5864,0,U,61014,999,9755,.29936206E-3,.225E-4,0
GEESAT-3 05,2024-159E,2026-06-14T06:03:27.508608,14.84246027,.00135101,50.0019,96.9327,43.3365,316.8634,0,U,61015,999,9634,.36282135E-3,.2846E-4,0
